FLOCK 4G-5              
1 62663U 25009BG  26068.45638436  .00011278  00000+0  40688-3 0  9997
2 62663  97.4058 151.2478 0002094 314.5072  45.5996 15.28679529 63699
STARLINK-34065          
1 63813U 25092K   26068.33080767  .00045434  00000+0  16484-2 0  9999
2 63813  42.9906 170.7214 0003326 146.7336 213.3725 15.27617827 48549
